NORAD_CAT_ID,OBJECT_NAME,OBJECT_TYPE,EPOCH,MEAN_MOTION,ECCENTRICITY,INCLINATION,RA_OF_ASC_NODE,ARG_OF_PERICENTER,MEAN_ANOMALY,BSTAR,MEAN_MOTION_DOT,MEAN_MOTION_DDOT,TLE_LINE0,TLE_LINE1,TLE_LINE2,SEMIMAJOR_AXIS,PERIOD,APOGEE,PERIGEE,DECAYED
49730.0,STARLINK-3249,PAYLOAD,2023-02-28 11:54:46,15.08864146,0.0001448,53.2176,80.5386,85.3456,274.7702,0.0014357,0.0002265,0.0,0 STARLINK-3249,1 49730U 21115G   23059.49636630  .00022650  00000-0  14357-2 0  9996,2 49730  53.2176  80.5386 0001448  85.3456 274.7702 15.08864146 68542,6917.807,95.436,540.673,538.67,0.0
49730.0,STARLINK-3249,PAYLOAD,2023-03-01 10:10:11,15.08816545,0.00014,53.217,76.3761,116.5556,243.5579,0.0012002,0.00018852,0.0,0 STARLINK-3249,1 49730U 21115G   23060.42374696  .00018852  00000-0  12002-2 0  9996,2 49730  53.2170  76.3761 0001400 116.5556 243.5579 15.08816545 69796,6917.952,95.439,540.786,538.849,0.0
49730.0,STARLINK-3249,PAYLOAD,2023-03-01 18:07:07,15.08830015,0.0001365,53.2167,74.8889,114.5888,245.5247,0.0011698,0.00018373,0.0,0 STARLINK-3249,1 49730U 21115G   23060.75494993  .00018373  00000-0  11698-2 0  9993,2 49730  53.2167  74.8889 0001365 114.5888 245.5247 15.08830015 68737,6917.911,95.438,540.72,538.832,0.0
49730.0,STARLINK-3249,PAYLOAD,2023-03-02 17:57:54,15.08861339,0.0001465,53.2177,70.4275,105.9172,254.1982,0.001105,0.00017352,0.0,0 STARLINK-3249,1 49730U 21115G   23061.74854449  .00017352  00000-0  11050-2 0  9997,2 49730  53.2177  70.4275 0001465 105.9172 254.1982 15.08861339 68881,6917.815,95.436,540.694,538.667,0.0
49730.0,STARLINK-3249,PAYLOAD,2023-03-03 06:40:58,15.08878573,0.0001365,53.2167,68.0492,106.481,253.6333,0.0020967,0.00033274,0.0,0 STARLINK-3249,1 49730U 21115G   23062.27845670  .00033274  00000-0  20967-2 0  9990,2 49730  53.2167  68.0492 0001365 106.4810 253.6333 15.08878573 70074,6917.762,95.435,540.572,538.683,0.0
49730.0,STARLINK-3249,PAYLOAD,2023-03-03 11:27:07,15.08887932,0.0001316,53.2167,67.1571,105.3555,254.7583,0.0021372,0.00033934,0.0,0 STARLINK-3249,1 49730U 21115G   23062.47717144  .00033934  00000-0  21372-2 0  9990,2 49730  53.2167  67.1571 0001316 105.3555 254.7583 15.08887932 68998,6917.734,95.435,540.509,538.689,0.0
49730.0,STARLINK-3249,PAYLOAD,2023-03-03 17:48:40,15.08859013,0.0001807,53.2166,65.9673,95.3145,264.8053,0.00080911,0.00012619,0.0,0 STARLINK-3249,1 49730U 21115G   23062.74213588  .00012619  00000-0  80911-3 0  9995,2 49730  53.2166  65.9673 0001807  95.3145 264.8053 15.08859013 69033,6917.822,95.436,540.937,538.437,0.0
49730.0,STARLINK-3249,PAYLOAD,2023-03-03 22:34:49,15.0886507,0.0001399,53.2169,65.0753,98.9514,261.1637,0.001262,0.00019868,0.0,0 STARLINK-3249,1 49730U 21115G   23062.94085186  .00019868  00000-0  12620-2 0  9992,2 49730  53.2169  65.0753 0001399  98.9514 261.1637 15.08865070 70176,6917.804,95.436,540.637,538.701,0.0
49730.0,STARLINK-3249,PAYLOAD,2023-03-04 11:17:53,15.08881542,0.000129,53.2175,62.6962,101.0441,259.0696,0.0019648,0.00031156,0.0,0 STARLINK-3249,1 49730U 21115G   23063.47076250  .00031156  00000-0  19648-2 0  9994,2 49730  53.2175  62.6962 0001290 101.0441 259.0696 15.08881542 69141,6917.753,95.435,540.511,538.726,0.0
49730.0,STARLINK-3249,PAYLOAD,2023-03-05 06:22:32,15.08840886,0.0001189,53.2176,59.1274,72.8631,287.2491,0.0014866,0.00023451,0.0,0 STARLINK-3249,1 49730U 21115G   23064.26565370  .00023451  00000-0  14866-2 0  9994,2 49730  53.2176  59.1274 0001189  72.8631 287.2491 15.08840886 70371,6917.878,95.437,540.565,538.92,0.0
49730.0,STARLINK-3249,PAYLOAD,2023-03-06 04:37:56,15.08857886,0.0001337,53.2184,54.9669,78.4334,281.6808,0.00122,0.00019191,0.0,0 STARLINK-3249,1 49730U 21115G   23065.19301373  .00019191  00000-0  12200-2 0  9994,2 49730  53.2184  54.9669 0001337  78.4334 281.6808 15.08857886 70512,6917.826,95.436,540.616,538.766,0.0
49730.0,STARLINK-3249,PAYLOAD,2023-03-06 10:59:28,15.08885403,0.000128,53.2178,53.7764,78.6005,281.5131,0.0017916,0.00028376,0.0,0 STARLINK-3249,1 49730U 21115G   23065.45796545  .00028376  00000-0  17916-2 0  9996,2 49730  53.2178  53.7764 0001280  78.6005 281.5131 15.08885403 70550,6917.742,95.435,540.492,538.721,0.0
49730.0,STARLINK-3249,PAYLOAD,2023-03-07 06:04:06,15.08857784,9.85e-05,53.2186,50.2099,114.7637,245.3457,0.001363,0.00021481,0.0,0 STARLINK-3249,1 49730U 21115G   23066.25285217  .00021481  00000-0  13630-2 0  9993,2 49730  53.2186  50.2099 0000985 114.7637 245.3457 15.08857784 70679,6917.826,95.436,540.372,539.01,0.0
49730.0,STARLINK-3249,PAYLOAD,2023-03-07 21:57:58,15.08854621,0.0002458,53.2178,47.2341,79.2392,280.8877,0.0022757,0.00036131,0.0,0 STARLINK-3249,1 49730U 21115G   23066.91526147  .00036131  00000-0  22757-2 0  9994,2 49730  53.2178  47.2341 0002458  79.2392 280.8877 15.08854621 70774,6917.836,95.437,541.401,538.0,0.0
49730.0,STARLINK-3249,PAYLOAD,2023-03-08 02:44:07,15.08840678,8.23e-05,53.2179,46.3413,92.3849,267.7238,0.0012115,0.00019046,0.0,0 STARLINK-3249,1 49730U 21115G   23067.11397966  .00019046  00000-0  12115-2 0  9995,2 49730  53.2179  46.3413 0000823  92.3849 267.7238 15.08840678 70808,6917.878,95.438,540.313,539.174,0.0
49730.0,STARLINK-3249,PAYLOAD,2023-03-08 15:27:13,15.08849381,0.0001891,53.218,43.9622,76.5561,283.5642,0.0017339,0.00027422,0.0,0 STARLINK-3249,1 49730U 21115G   23067.64390545  .00027422  00000-0  17339-2 0  9999,2 49730  53.2180  43.9622 0001891  76.5561 283.5642 15.08849381 70889,6917.852,95.437,541.025,538.409,0.0
49730.0,STARLINK-3249,PAYLOAD,2023-03-08 21:48:45,15.08873627,0.0001677,53.2183,42.7743,80.2006,279.9175,0.0028973,0.00046168,0.0,0 STARLINK-3249,1 49730U 21115G   23067.90886229  .00046168  00000-0  28973-2 0  9991,2 49730  53.2183  42.7743 0001677  80.2006 279.9175 15.08873627 69812,6917.778,95.435,540.803,538.482,0.0
49730.0,STARLINK-3249,PAYLOAD,2023-03-09 07:21:04,15.08868753,0.0001323,53.2184,40.9893,79.9385,280.1756,0.0022791,0.00036199,0.0,0 STARLINK-3249,1 49730U 21115G   23068.30629926  .00036199  00000-0  22791-2 0  9990,2 49730  53.2184  40.9893 0001323  79.9385 280.1756 15.08868753 70985,6917.793,95.436,540.573,538.742,0.0
49730.0,STARLINK-3249,PAYLOAD,2023-03-10 04:01:04,15.08894597,0.0001199,53.2186,37.1229,119.523,240.5882,0.0032729,0.00052265,0.0,0 STARLINK-3249,1 49730U 21115G   23069.16741117  .00052265  00000-0  32729-2 0  9996,2 49730  53.2186  37.1229 0001199 119.5230 240.5882 15.08894597 71110,6917.714,95.434,540.408,538.749,0.0
49730.0,STARLINK-3249,PAYLOAD,2023-03-10 15:08:46,15.08851061,0.0001767,53.2191,35.0418,71.2288,288.8895,0.0013728,0.00021634,0.0,0 STARLINK-3249,1 49730U 21115G   23069.63109684  .00021634  00000-0  13728-2 0  9999,2 49730  53.2191  35.0418 0001767  71.2288 288.8895 15.08851061 71186,6917.847,95.437,540.934,538.489,0.0
49730.0,STARLINK-3249,PAYLOAD,2023-03-11 03:51:52,15.08823369,9.93e-05,53.2188,32.6628,83.6414,276.4691,0.0020229,0.00032038,0.0,0 STARLINK-3249,1 49730U 21115G   23070.16102614  .00032038  00000-0  20229-2 0  9999,2 49730  53.2188  32.6628 0000993  83.6414 276.4691 15.08823369 71262,6917.931,95.439,540.483,539.109,0.0
49730.0,STARLINK-3249,PAYLOAD,2023-03-11 07:02:39,15.08837796,0.0001291,53.2185,32.0676,83.7594,276.3545,0.0030146,0.00048013,0.0,0 STARLINK-3249,1 49730U 21115G   23070.29350803  .00048013  00000-0  30146-2 0  9997,2 49730  53.2185  32.0676 0001291  83.7594 276.3545 15.08837796 70173,6917.887,95.438,540.645,538.859,0.0
49730.0,STARLINK-3249,PAYLOAD,2023-03-12 06:53:25,15.08867989,0.0001529,53.2191,27.6038,99.3728,260.7437,0.0016219,0.00025639,0.0,0 STARLINK-3249,1 49730U 21115G   23071.28710538  .00025639  00000-0  16219-2 0  9996,2 49730  53.2191  27.6038 0001529  99.3728 260.7437 15.08867989 71432,6917.795,95.436,540.718,538.602,0.0
49730.0,STARLINK-3249,PAYLOAD,2023-03-13 05:08:48,15.08864435,6.32e-05,53.2188,23.4432,142.4207,217.6829,0.00084326,0.00013167,0.0,0 STARLINK-3249,1 49730U 21115G   23072.21445230  .00013167  00000-0  84326-3 0  9992,2 49730  53.2188  23.4432 0000632 142.4207 217.6829 15.08864435 71570,6917.806,95.436,540.108,539.233,0.0
49730.0,STARLINK-3249,PAYLOAD,2023-03-13 06:44:12,15.08865866,0.0001959,53.2194,23.1462,73.4871,286.6336,0.00065094,0.00010094,0.0,0 STARLINK-3249,1 49730U 21115G   23072.28069827  .00010094  00000-0  65094-3 0  9990,2 49730  53.2194  23.1462 0001959  73.4871 286.6336 15.08865866 70476,6917.801,95.436,541.022,538.311,0.0
49730.0,STARLINK-3249,PAYLOAD,2023-03-13 21:02:40,15.08831122,0.0001441,53.2186,20.4678,93.7872,266.3284,9.3067e-05,1.193e-05,0.0,0 STARLINK-3249,1 49730U 21115G   23072.87686269  .00001193  00000-0  93067-4 0  9992,2 49730  53.2186  20.4678 0001441  93.7872 266.3284 15.08831122 71676,6917.908,95.438,540.769,538.776,0.0
49730.0,STARLINK-3249,PAYLOAD,2023-03-14 12:56:32,15.08839045,8.05e-05,53.2182,17.499,89.7791,270.3293,3.7852e-05,3.15e-06,0.0,0 STARLINK-3249,1 49730U 21115G   23073.53926537  .00000315  00000-0  37852-4 0  9996,2 49730  53.2182  17.4990 0000805  89.7791 270.3293 15.08839045 70668,6917.883,95.438,540.305,539.191,0.0
49730.0,STARLINK-3249,PAYLOAD,2023-03-14 20:53:27,15.08853905,7.37e-05,53.2173,16.0119,75.0596,285.0477,0.0003908,5.94e-05,0.0,0 STARLINK-3249,1 49730U 21115G   23073.87045888  .00005940  00000-0  39080-3 0  9997,2 49730  53.2173  16.0119 0000737  75.0596 285.0477 15.08853905 71828,6917.838,95.437,540.213,539.193,0.0
49730.0,STARLINK-3249,PAYLOAD,2023-03-15 03:14:59,15.08876024,6.2e-05,53.2172,14.8221,67.6028,292.503,0.00097237,0.00015236,0.0,0 STARLINK-3249,1 49730U 21115G   23074.13540984  .00015236  00000-0  97237-3 0  9991,2 49730  53.2172  14.8221 0000620  67.6028 292.5030 15.08876024 71864,6917.77,95.435,540.064,539.206,0.0
49730.0,STARLINK-3249,PAYLOAD,2023-03-15 06:25:45,15.08886623,8.03e-05,53.2179,14.227,72.6441,287.4639,0.0012115,0.0001907,0.0,0 STARLINK-3249,1 49730U 21115G   23074.26788485  .00019070  00000-0  12115-2 0  9996,2 49730  53.2179  14.2270 0000803  72.6441 287.4639 15.08886623 70770,6917.738,95.435,540.158,539.047,0.0
